CZ-2C R/B               
1 54039U 22132E   26007.97882311  .00033908  00000+0  47114-3 0  9997
2 54039  97.2949   9.7132 0018043 322.4781  37.5214 15.56742561180911
GSLV R/B                
1 54149U 22138AN  26008.20677372  .00002840  00000+0  24770-3 0  9995
2 54149  87.3828 186.6085 0022397  17.6345 342.5658 14.96300699174882
XRISM                   
1 57800U 23137A   26008.20058572  .00006805  00000+0  39492-3 0  9999
2 57800  31.0030 314.6652 0007815 154.6368 205.4655 15.10703675128632
ACS3                    
1 59588U 24077B   26008.31686751  .00014727  00000+0  12395-1 0  9999
2 59588  97.2475 322.9836 0065088 271.4226  87.9481 13.86926720 85829
SZ-21 MODULE            
1 66515U 25246C   26007.86050997  .00025291  00000+0  26192-3 0  9992
2 66515  41.4742 216.5245 0001494  84.1343 275.9668 15.64106684  8533
